GLOBALSTAR M075         
1 37192U 10054E   25014.94677164 -.00000061  00000+0  23615-3 0  9995
2 37192  51.9955 288.1216 0000837  65.3655  14.8984 12.62271800656497
GLOBALSTAR M073         
1 37193U 10054F   25014.88293045 -.00000105  00000+0 -59143-5 0  9998
2 37193  52.0030 202.0166 0001092  81.2473  68.0906 12.62262538658475
GLOBALSTAR M083         
1 37739U 11033A   25015.51603216 -.00000110  00000+0 -35774-4 0  9997
2 37739  51.9844 149.0279 0000776 110.2494 338.0510 12.62270709627938
GLOBALSTAR M088         
1 37740U 11033B   25014.55600088 -.00000077  00000+0  14714-3 0  9997
2 37740  51.9745  57.5723 0000355 138.2880  25.6237 12.62267359623285
GLOBALSTAR M091         
1 37741U 11033C   25015.43784799 -.00000093  00000+0  62165-4 0  9990
2 37741  52.0019  18.1690 0000098 202.0256 310.4481 12.62272677624151
GLOBALSTAR M085         
1 37742U 11033D   25014.92465255 -.00000085  00000+0  10488-3 0  9998
2 37742  51.9890 330.9059 0000260  39.4826   0.1002 12.62263870624345
GLOBALSTAR M081         
1 37743U 11033E   25015.20272325 -.00000092  00000+0  63553-4 0  9995
2 37743  51.9980 332.7495 0000515  19.7198  85.4209 12.62275262624901
GLOBALSTAR M089         
1 37744U 11033F   25015.17260525 -.00000062  00000+0  23038-3 0  9991
2 37744  51.9936 287.1013 0001004  59.9584  87.0468 12.62265120625617
